start=new Date('2022-10-27T00:00:00.000Z').valueOf();
sats=[{"SEMIMAJOR_AXIS":"6917.888","ARG_OF_PERICENTER":"59.8132","SITE":"AFWTR","CLASSIFICATION_TYPE":"U","REV_AT_EPOCH":"3690","LAUNCH_DATE":"2022-02-25","RA_OF_ASC_NODE":"100.1114","RCS_SIZE":"LARGE","OBJECT_TYPE":"PAYLOAD","TIME_SYSTEM":"UTC","PERIAPSIS":"538.471","MEAN_ANOMALY":"300.3044","TLE_LINE2":"2 51776  53.2184 100.1114 0001853  59.8132 300.3044 15.08837661 36901","MEAN_ELEMENT_THEORY":"SGP4","MEAN_MOTION":"15.08837661","APOAPSIS":"541.034","DECAY_DATE":null,"COUNTRY_CODE":"US","FILE":"3635100","ELEMENT_SET_NO":"999","ECCENTRICITY":"0.00018530","TLE_LINE1":"1 51776U 22017J   22299.84446826  .00001528  00000-0  11407-3 0  9996","EPHEMERIS_TYPE":"0","GP_ID":"216265315","MEAN_MOTION_DDOT":"0.0000000000000","MEAN_MOTION_DOT":"0.00001528","OBJECT_NAME":"STARLINK-3608","EPOCH":"2022-10-26T20:16:02.057664","NORAD_CAT_ID":"51776","INCLINATION":"53.2184","PERIOD":"95.438","OBJECT_ID":"2022-017J","BSTAR":"0.00011407000000","REF_FRAME":"TEME","CENTER_NAME":"EARTH"},{"CLASSIFICATION_TYPE":"U","SITE":"AFWTR","SEMIMAJOR_AXIS":"6917.929","ARG_OF_PERICENTER":"43.9176","TIME_SYSTEM":"UTC","RA_OF_ASC_NODE":"100.0803","RCS_SIZE":"LARGE","OBJECT_TYPE":"PAYLOAD","REV_AT_EPOCH":"3693","LAUNCH_DATE":"2022-02-25","MEAN_ANOMALY":"316.1963","PERIAPSIS":"538.508","DECAY_DATE":null,"APOAPSIS":"541.080","MEAN_MOTION":"15.08824138","TLE_LINE2":"2 51777  53.2181 100.0803 0001859  43.9176 316.1963 15.08824138 36934","MEAN_ELEMENT_THEORY":"SGP4","COUNTRY_CODE":"US","FILE":"3635100","ELEMENT_SET_NO":"999","MEAN_MOTION_DDOT":"0.0000000000000","GP_ID":"216265565","EPHEMERIS_TYPE":"0","MEAN_MOTION_DOT":"0.00001533","TLE_LINE1":"1 51777U 22017K   22299.85184307  .00001533  00000-0  11442-3 0  9996","ECCENTRICITY":"0.00018590","CENTER_NAME":"EARTH","INCLINATION":"53.2181","PERIOD":"95.439","OBJECT_ID":"2022-017K","BSTAR":"0.00011442000000","REF_FRAME":"TEME","NORAD_CAT_ID":"51777","EPOCH":"2022-10-26T20:26:39.241248","OBJECT_NAME":"STARLINK-3625"},{"PERIAPSIS":"538.560","MEAN_ANOMALY":"312.9270","TLE_LINE2":"2 51778  53.2168  90.0112 0001741  47.1868 312.9270 15.08833737 36890","MEAN_ELEMENT_THEORY":"SGP4","MEAN_MOTION":"15.08833737","DECAY_DATE":null,"APOAPSIS":"540.969","SEMIMAJOR_AXIS":"6917.900","ARG_OF_PERICENTER":"47.1868","SITE":"AFWTR","CLASSIFICATION_TYPE":"U","REV_AT_EPOCH":"3689","LAUNCH_DATE":"2022-02-25","RCS_SIZE":"LARGE","OBJECT_TYPE":"PAYLOAD","RA_OF_ASC_NODE":"90.0112","TIME_SYSTEM":"UTC","ECCENTRICITY":"0.00017410","TLE_LINE1":"1 51778U 22017L   22299.86474642 -.00000205  00000-0  52276-5 0  9990","EPHEMERIS_TYPE":"0","GP_ID":"216266317","MEAN_MOTION_DDOT":"0.0000000000000","MEAN_MOTION_DOT":"-0.00000205","EPOCH":"2022-10-26T20:45:14.090688","OBJECT_NAME":"STARLINK-3615","NORAD_CAT_ID":"51778","OBJECT_ID":"2022-017L","PERIOD":"95.438","INCLINATION":"53.2168","BSTAR":"0.00000522760000","REF_FRAME":"TEME","CENTER_NAME":"EARTH","COUNTRY_CODE":"US","FILE":"3635100","ELEMENT_SET_NO":"999"},{"SEMIMAJOR_AXIS":"6917.901","ARG_OF_PERICENTER":"42.9360","CLASSIFICATION_TYPE":"U","SITE":"AFWTR","REV_AT_EPOCH":"3690","LAUNCH_DATE":"2022-02-25","TIME_SYSTEM":"UTC","RCS_SIZE":"LARGE","RA_OF_ASC_NODE":"100.1336","OBJECT_TYPE":"PAYLOAD","MEAN_ANOMALY":"317.1777","PERIAPSIS":"538.482","MEAN_MOTION":"15.08833211","TLE_LINE2":"2 51779  53.2192 100.1336 0001856  42.9360 317.1777 15.08833211 36904","MEAN_ELEMENT_THEORY":"SGP4","DECAY_DATE":null,"APOAPSIS":"541.050","COUNTRY_CODE":"US","FILE":"3635100","ELEMENT_SET_NO":"999","TLE_LINE1":"1 51779U 22017M   22299.84078939 -.00000195  00000-0  58269-5 0  9994","ECCENTRICITY":"0.00018560","GP_ID":"216266560","MEAN_MOTION_DDOT":"0.0000000000000","EPHEMERIS_TYPE":"0","MEAN_MOTION_DOT":"-0.00000195","NORAD_CAT_ID":"51779","EPOCH":"2022-10-26T20:10:44.203296","OBJECT_NAME":"STARLINK-3611","CENTER_NAME":"EARTH","PERIOD":"95.438","INCLINATION":"53.2192","OBJECT_ID":"2022-017M","REF_FRAME":"TEME","BSTAR":"0.00000582690000"},{"COUNTRY_CODE":"US","FILE":"3635100","ELEMENT_SET_NO":"999","GP_ID":"216265816","EPHEMERIS_TYPE":"0","MEAN_MOTION_DDOT":"0.0000000000000","MEAN_MOTION_DOT":"0.00001031","TLE_LINE1":"1 51780U 22017N   22299.76448198  .00001031  00000-0  82894-4 0  9994","ECCENTRICITY":"0.00019280","CENTER_NAME":"EARTH","OBJECT_ID":"2022-017N","PERIOD":"95.438","INCLINATION":"53.2193","BSTAR":"0.00008289400000","REF_FRAME":"TEME","NORAD_CAT_ID":"51780","OBJECT_NAME":"STARLINK-3617","EPOCH":"2022-10-26T18:20:51.243072","CLASSIFICATION_TYPE":"U","SITE":"AFWTR","SEMIMAJOR_AXIS":"6917.909","ARG_OF_PERICENTER":"52.3964","TIME_SYSTEM":"UTC","OBJECT_TYPE":"PAYLOAD","RCS_SIZE":"LARGE","RA_OF_ASC_NODE":"100.4784","REV_AT_EPOCH":"3674","LAUNCH_DATE":"2022-02-25","MEAN_ANOMALY":"307.7203","PERIAPSIS":"538.441","DECAY_DATE":null,"APOAPSIS":"541.108","MEAN_MOTION":"15.08830516","TLE_LINE2":"2 51780  53.2193 100.4784 0001928  52.3964 307.7203 15.08830516 36748","MEAN_ELEMENT_THEORY":"SGP4"},{"RA_OF_ASC_NODE":"100.4472","RCS_SIZE":"LARGE","OBJECT_TYPE":"PAYLOAD","TIME_SYSTEM":"UTC","REV_AT_EPOCH":"3674","LAUNCH_DATE":"2022-02-25","SITE":"AFWTR","CLASSIFICATION_TYPE":"U","SEMIMAJOR_AXIS":"6917.891","ARG_OF_PERICENTER":"46.9858","DECAY_DATE":null,"APOAPSIS":"541.150","TLE_LINE2":"2 51781  53.2187 100.4472 0002016  46.9858 313.1303 15.08836653 36746","MEAN_ELEMENT_THEORY":"SGP4","MEAN_MOTION":"15.08836653","PERIAPSIS":"538.361","MEAN_ANOMALY":"313.1303","ELEMENT_SET_NO":"999","COUNTRY_CODE":"US","FILE":"3635100","PERIOD":"95.438","INCLINATION":"53.2187","OBJECT_ID":"2022-017P","REF_FRAME":"TEME","BSTAR":"0.00013158000000","CENTER_NAME":"EARTH","EPOCH":"2022-10-26T18:30:03.022848","OBJECT_NAME":"STARLINK-3580","NORAD_CAT_ID":"51781","MEAN_MOTION_DDOT":"0.0000000000000","GP_ID":"216266066","EPHEMERIS_TYPE":"0","MEAN_MOTION_DOT":"0.00001806","ECCENTRICITY":"0.00020160","TLE_LINE1":"1 51781U 22017P   22299.77086832  .00001806  00000-0  13158-3 0  9995"},{"PERIAPSIS":"538.434","MEAN_ANOMALY":"311.5820","DECAY_DATE":null,"APOAPSIS":"541.171","MEAN_ELEMENT_THEORY":"SGP4","TLE_LINE2":"2 51782  53.2164 110.0521 0001978  48.5341 311.5820 15.08821228 36529","MEAN_MOTION":"15.08821228","SITE":"AFWTR","CLASSIFICATION_TYPE":"U","ARG_OF_PERICENTER":"48.5341","SEMIMAJOR_AXIS":"6917.938","RCS_SIZE":"LARGE","RA_OF_ASC_NODE":"110.0521","OBJECT_TYPE":"PAYLOAD","TIME_SYSTEM":"UTC","LAUNCH_DATE":"2022-02-25","REV_AT_EPOCH":"3652","MEAN_MOTION_DOT":"0.00001714","GP_ID":"216266818","MEAN_MOTION_DDOT":"0.0000000000000","EPHEMERIS_TYPE":"0","ECCENTRICITY":"0.00019780","TLE_LINE1":"1 51782U 22017Q   22299.85460789  .00001714  00000-0  12583-3 0  9991","BSTAR":"0.00012583000000","REF_FRAME":"TEME","OBJECT_ID":"2022-017Q","PERIOD":"95.439","INCLINATION":"53.2164","CENTER_NAME":"EARTH","OBJECT_NAME":"STARLINK-3616","EPOCH":"2022-10-26T20:30:38.121696","NORAD_CAT_ID":"51782","FILE":"3635100","COUNTRY_CODE":"US","ELEMENT_SET_NO":"999"},{"ELEMENT_SET_NO":"999","COUNTRY_CODE":"US","FILE":"3635100","OBJECT_NAME":"STARLINK-3628","EPOCH":"2022-10-26T20:00:09.972864","NORAD_CAT_ID":"51783","PERIOD":"95.439","OBJECT_ID":"2022-017R","INCLINATION":"53.2187","BSTAR":"0.00010301000000","REF_FRAME":"TEME","CENTER_NAME":"EARTH","ECCENTRICITY":"0.00016900","TLE_LINE1":"1 51783U 22017R   22299.83344876  .00001351  00000-0  10301-3 0  9991","EPHEMERIS_TYPE":"0","GP_ID":"216267061","MEAN_MOTION_DDOT":"0.0000000000000","MEAN_MOTION_DOT":"0.00001351","REV_AT_EPOCH":"3675","LAUNCH_DATE":"2022-02-25","RA_OF_ASC_NODE":"100.1642","RCS_SIZE":"LARGE","OBJECT_TYPE":"PAYLOAD","TIME_SYSTEM":"UTC","SEMIMAJOR_AXIS":"6917.932","ARG_OF_PERICENTER":"45.8575","SITE":"AFWTR","CLASSIFICATION_TYPE":"U","TLE_LINE2":"2 51783  53.2187 100.1642 0001690  45.8575 314.2555 15.08823095 36753","MEAN_ELEMENT_THEORY":"SGP4","MEAN_MOTION":"15.08823095","DECAY_DATE":null,"APOAPSIS":"540.966","PERIAPSIS":"538.628","MEAN_ANOMALY":"314.2555"},{"MEAN_ANOMALY":"285.6961","PERIAPSIS":"538.681","DECAY_DATE":null,"APOAPSIS":"540.883","MEAN_MOTION":"15.08827995","MEAN_ELEMENT_THEORY":"SGP4","TLE_LINE2":"2 51784  53.2170 110.0775 0001592  74.4207 285.6961 15.08827995 36614","CLASSIFICATION_TYPE":"U","SITE":"AFWTR","ARG_OF_PERICENTER":"74.4207","SEMIMAJOR_AXIS":"6917.917","TIME_SYSTEM":"UTC","RCS_SIZE":"LARGE","RA_OF_ASC_NODE":"110.0775","OBJECT_TYPE":"PAYLOAD","LAUNCH_DATE":"2022-02-25","REV_AT_EPOCH":"3661","MEAN_MOTION_DOT":"0.00001846","GP_ID":"216265316","MEAN_MOTION_DDOT":"0.0000000000000","EPHEMERIS_TYPE":"0","TLE_LINE1":"1 51784U 22017S   22299.85091921  .00001846  00000-0  13406-3 0  9992","ECCENTRICITY":"0.00015920","CENTER_NAME":"EARTH","BSTAR":"0.00013406000000","REF_FRAME":"TEME","INCLINATION":"53.2170","PERIOD":"95.438","OBJECT_ID":"2022-017S","NORAD_CAT_ID":"51784","OBJECT_NAME":"STARLINK-3632","EPOCH":"2022-10-26T20:25:19.419744","FILE":"3635100","COUNTRY_CODE":"US","ELEMENT_SET_NO":"999"},{"PERIOD":"95.438","OBJECT_ID":"2022-017T","INCLINATION":"53.2187","REF_FRAME":"TEME","BSTAR":"0.00000587330000","CENTER_NAME":"EARTH","EPOCH":"2022-10-26T18:19:27.504192","OBJECT_NAME":"STARLINK-3646","NORAD_CAT_ID":"51785","MEAN_MOTION_DDOT":"0.0000000000000","GP_ID":"216265566","EPHEMERIS_TYPE":"0","MEAN_MOTION_DOT":"-0.00000195","ECCENTRICITY":"0.00017670","TLE_LINE1":"1 51785U 22017T   22299.76351278 -.00000195  00000-0  58733-5 0  9998","ELEMENT_SET_NO":"999","COUNTRY_CODE":"US","FILE":"3635100","DECAY_DATE":null,"APOAPSIS":"541.000","TLE_LINE2":"2 51785  53.2187 100.4895 0001767  54.3162 305.7995 15.08829551 36745","MEAN_ELEMENT_THEORY":"SGP4","MEAN_MOTION":"15.08829551","PERIAPSIS":"538.555","MEAN_ANOMALY":"305.7995","RCS_SIZE":"LARGE","RA_OF_ASC_NODE":"100.4895","OBJECT_TYPE":"PAYLOAD","TIME_SYSTEM":"UTC","REV_AT_EPOCH":"3674","LAUNCH_DATE":"2022-02-25","SITE":"AFWTR","CLASSIFICATION_TYPE":"U","SEMIMAJOR_AXIS":"6917.912","ARG_OF_PERICENTER":"54.3162"}];
